{"type": "FeatureCollection", "features": [ {"type": "Feature", "properties": {"norad_id": 37867, "name": "COSMOS 2476 (744)", "group": "gnss", "lat": -0.7508537193919063, "lon": -100.838479530754, "alt_km": 19094.08599936303, "timestamp": "2025-12-23T16:57:12.593312+00:00", "meta": {"OBJECT_NAME": "COSMOS 2476 (744)", "OBJECT_ID": "2011-064A", "EPOCH": "2025-12-23T12:51:54.046080", "MEAN_MOTION": 2.13103692, "ECCENTRICITY": 0.002455, "INCLINATION": 65.1675, "RA_OF_ASC_NODE": 78.8064, "ARG_OF_PERICENTER": 235.5255, "MEAN_ANOMALY": 174.828, "EPHEMERIS_TYPE": 0, "CLASSIFICATION_TYPE": "U", "NORAD_CAT_ID": 37867, "ELEMENT_SET_NO": 999, "REV_AT_EPOCH": 11002, "BSTAR": 0, "MEAN_MOTION_DOT": 1e-08, "MEAN_MOTION_DDOT": 0}, "tle": {"line1": "1 37867U 11064A   25357.53604220  .00000001  00000+0  00000+0 0  9996", "line2": "2 37867  65.1675  78.8064 0024550 235.5255 174.8280  2.13103692110020"}}, "geometry": {"type": "Point", "coordinates": [-100.838479530754, -0.7508537193919063]}}, {"type": "Feature", "properties": {"norad_id": 37868, "name": "COSMOS 2477 (745)", "group": "gnss", "lat": 1.8981012946607903, "lon": 79.76932629543496, "alt_km": 19162.954665737136, "timestamp": "2025-12-23T16:57:12.593324+00:00", "meta": {"OBJECT_NAME": "COSMOS 2477 (745)", "OBJECT_ID": "2011-064B", "EPOCH": "2025-12-23T05:19:57.056160", "MEAN_MOTION": 2.13103036, "ECCENTRICITY": 0.00215459, "INCLINATION": 65.1742, "RA_OF_ASC_NODE": 78.8944, "ARG_OF_PERICENTER": 235.4149, "MEAN_ANOMALY": 115.0574, "EPHEMERIS_TYPE": 0, "CLASSIFICATION_TYPE": "U", "NORAD_CAT_ID": 37868, "ELEMENT_SET_NO": 999, "REV_AT_EPOCH": 11000, "BSTAR": 0, "MEAN_MOTION_DOT": 0, "MEAN_MOTION_DDOT": 0}, "tle": {"line1": "1 37868U 11064B   25357.22218815  .00000000  00000+0  00000+0 0  9993", "line2": "2 37868  65.1742  78.8944 0021545 235.4149 115.0574  2.13103036110008"}}, "geometry": {"type": "Point", "coordinates": [79.76932629543496, 1.8981012946607903]}}, {"type": "Feature", "properties": {"norad_id": 37869, "name": "COSMOS 2475 (743)", "group": "gnss", "lat": -37.337410531285556, "lon": 58.2753292118525, "alt_km": 19110.18007247837, "timestamp": "2025-12-23T16:57:12.593344+00:00", "meta": {"OBJECT_NAME": "COSMOS 2475 (743)", "OBJECT_ID": "2011-064C", "EPOCH": "2025-12-23T06:48:57.377088", "MEAN_MOTION": 2.13101654, "ECCENTRICITY": 0.00266814, "INCLINATION": 65.1811, "RA_OF_ASC_NODE": 78.9126, "ARG_OF_PERICENTER": 249.1292, "MEAN_ANOMALY": 104.6561, "EPHEMERIS_TYPE": 0, "CLASSIFICATION_TYPE": "U", "NORAD_CAT_ID": 37869, "ELEMENT_SET_NO": 999, "REV_AT_EPOCH": 11001, "BSTAR": 0, "MEAN_MOTION_DOT": 1e-08, "MEAN_MOTION_DDOT": 0}, "tle": {"line1": "1 37869U 11064C   25357.28399742  .00000001  00000+0  00000+0 0  9990", "line2": "2 37869  65.1811  78.9126 0026681 249.1292 104.6561  2.13101654110011"}}, "geometry": {"type": "Point", "coordinates": [58.2753292118525, -37.337410531285556]}}, {"type": "Feature", "properties": {"norad_id": 37948, "name": "BEIDOU-2 IGSO-5 (C10)", "group": "gnss", "lat": 10.672604574376418, "lon": 83.96782855177469, "alt_km": 35521.84542999136, "timestamp": "2025-12-23T16:57:12.593356+00:00", "meta": {"OBJECT_NAME": "BEIDOU-2 IGSO-5 (C10)", "OBJECT_ID": "2011-073A", "EPOCH": "2025-12-22T17:56:38.660352", "MEAN_MOTION": 1.00289046, "ECCENTRICITY": 0.01097824, "INCLINATION": 48.0017, "RA_OF_ASC_NODE": 273.7363, "ARG_OF_PERICENTER": 222.2409, "MEAN_ANOMALY": 318.2771, "EPHEMERIS_TYPE": 0, "CLASSIFICATION_TYPE": "U", "NORAD_CAT_ID": 37948, "ELEMENT_SET_NO": 999, "REV_AT_EPOCH": 5136, "BSTAR": 0, "MEAN_MOTION_DOT": -1.4e-06, "MEAN_MOTION_DDOT": 0}, "tle": {"line1": "1 37948U 11073A   25356.74766968 -.00000140  00000+0  00000+0 0  9991", "line2": "2 37948  48.0017 273.7363 0109782 222.2409 318.2771  1.00289046 51366"}}, "geometry": {"type": "Point", "coordinates": [83.96782855177469, 10.672604574376418]}}, {"type": "Feature", "properties": {"norad_id": 37951, "name": "LUCH 5A (SDCM/PRN 140)", "group": "gnss", "lat": 8.121660792725619, "lon": 153.6458833689074, "alt_km": 35794.666710682715, "timestamp": "2025-12-23T16:57:12.593368+00:00", "meta": {"OBJECT_NAME": "LUCH 5A (SDCM/PRN 140)", "OBJECT_ID": "2011-074B", "EPOCH": "2025-12-23T07:10:58.869408", "MEAN_MOTION": 1.0026906, "ECCENTRICITY": 0.00051752, "INCLINATION": 8.3049, "RA_OF_ASC_NODE": 76.4293, "ARG_OF_PERICENTER": 191.1681, "MEAN_ANOMALY": 99.2782, "EPHEMERIS_TYPE": 0, "CLASSIFICATION_TYPE": "U", "NORAD_CAT_ID": 37951, "ELEMENT_SET_NO": 999, "REV_AT_EPOCH": 5128, "BSTAR": 0, "MEAN_MOTION_DOT": -3.2e-07, "MEAN_MOTION_DDOT": 0}, "tle": {"line1": "1 37951U 11074B   25357.29929247 -.00000032  00000+0  00000+0 0  9998", "line2": "2 37951   8.3049  76.4293 0005175 191.1681  99.2782  1.00269060 51284"}}, "geometry": {"type": "Point", "coordinates": [153.6458833689074, 8.121660792725619]}}, {"type": "Feature", "properties": {"norad_id": 38091, "name": "BEIDOU-2 G5 (C05)", "group": "gnss", "lat": -1.3129429281612652, "lon": 45.71099669844808, "alt_km": 35799.551676513314, "timestamp": "2025-12-23T16:57:12.593381+00:00", "meta": {"OBJECT_NAME": "BEIDOU-2 G5 (C05)", "OBJECT_ID": "2012-008A", "EPOCH": "2025-12-23T03:08:21.323904", "MEAN_MOTION": 1.00269239, "ECCENTRICITY": 0.0013154, "INCLINATION": 3.1332, "RA_OF_ASC_NODE": 70.6743, "ARG_OF_PERICENTER": 232.0278, "MEAN_ANOMALY": 255.0578, "EPHEMERIS_TYPE": 0, "CLASSIFICATION_TYPE": "U", "NORAD_CAT_ID": 38091, "ELEMENT_SET_NO": 999, "REV_AT_EPOCH": 5060, "BSTAR": 0, "MEAN_MOTION_DOT": 7.7e-07, "MEAN_MOTION_DDOT": 0}, "tle": {"line1": "1 38091U 12008A   25357.13080236  .00000077  00000+0  00000+0 0  9999", "line2": "2 38091   3.1332  70.6743 0013154 232.0278 255.0578  1.00269239 50605"}}, "geometry": {"type": "Point", "coordinates": [45.71099669844808, -1.3129429281612652]}}, {"type": "Feature", "properties": {"norad_id": 38250, "name": "BEIDOU-2 M3 (C11)", "group": "gnss", "lat": 50.620975931772634, "lon": 6.2797442434678095, "alt_km": 21582.364945658708, "timestamp": "2025-12-23T16:57:12.593393+00:00", "meta": {"OBJECT_NAME": "BEIDOU-2 M3 (C11)", "OBJECT_ID": "2012-018A", "EPOCH": "2025-12-23T01:35:36.846816", "MEAN_MOTION": 1.86230199, "ECCENTRICITY": 0.00241034, "INCLINATION": 55.9114, "RA_OF_ASC_NODE": 310.8107, "ARG_OF_PERICENTER": 275.3309, "MEAN_ANOMALY": 84.3935, "EPHEMERIS_TYPE": 0, "CLASSIFICATION_TYPE": "U", "NORAD_CAT_ID": 38250, "ELEMENT_SET_NO": 999, "REV_AT_EPOCH": 9266, "BSTAR": 0, "MEAN_MOTION_DOT": -5.5e-07, "MEAN_MOTION_DDOT": 0}, "tle": {"line1": "1 38250U 12018A   25357.06639869 -.00000055  00000+0  00000+0 0  9998", "line2": "2 38250  55.9114 310.8107 0024103 275.3309  84.3935  1.86230199 92668"}}, "geometry": {"type": "Point", "coordinates": [6.2797442434678095, 50.620975931772634]}}, {"type": "Feature", "properties": {"norad_id": 38251, "name": "BEIDOU-2 M4 (C12)", "group": "gnss", "lat": 48.86440579183589, "lon": 78.97305990938737, "alt_km": 21563.49834034808, "timestamp": "2025-12-23T16:57:12.593405+00:00", "meta": {"OBJECT_NAME": "BEIDOU-2 M4 (C12)", "OBJECT_ID": "2012-018B", "EPOCH": "2025-12-21T22:11:20.549760", "MEAN_MOTION": 1.86229896, "ECCENTRICITY": 0.00152556, "INCLINATION": 55.8135, "RA_OF_ASC_NODE": 310.0771, "ARG_OF_PERICENTER": 279.1681, "MEAN_ANOMALY": 80.6551, "EPHEMERIS_TYPE": 0, "CLASSIFICATION_TYPE": "U", "NORAD_CAT_ID": 38251, "ELEMENT_SET_NO": 999, "REV_AT_EPOCH": 9264, "BSTAR": 0, "MEAN_MOTION_DOT": -6e-07, "MEAN_MOTION_DDOT": 0}, "tle": {"line1": "1 38251U 12018B   25355.92454340 -.00000060  00000+0  00000+0 0  9997", "line2": "2 38251  55.8135 310.0771 0015255 279.1681  80.6551  1.86229896 92646"}}, "geometry": {"type": "Point", "coordinates": [78.97305990938737, 48.86440579183589]}}, {"type": "Feature", "properties": {"norad_id": 38652, "name": "SES-5 (EGNOS/PRN 136)", "group": "gnss", "lat": 0.03730345061032118, "lon": -8.202998602800372, "alt_km": 35784.240631296896, "timestamp": "2025-12-23T16:57:12.593417+00:00", "meta": {"OBJECT_NAME": "SES-5 (EGNOS/PRN 136)", "OBJECT_ID": "2012-036A", "EPOCH": "2025-12-23T01:10:21.285408", "MEAN_MOTION": 1.00272166, "ECCENTRICITY": 0.00018817, "INCLINATION": 0.0604, "RA_OF_ASC_NODE": 303.4914, "ARG_OF_PERICENTER": 330.5025, "MEAN_ANOMALY": 200.4256, "EPHEMERIS_TYPE": 0, "CLASSIFICATION_TYPE": "U", "NORAD_CAT_ID": 38652, "ELEMENT_SET_NO": 999, "REV_AT_EPOCH": 4269, "BSTAR": 0, "MEAN_MOTION_DOT": 5.5e-07, "MEAN_MOTION_DDOT": 0}, "tle": {"line1": "1 38652U 12036A   25357.04885747  .00000055  00000+0  00000+0 0  9999", "line2": "2 38652   0.0604 303.4914 0001881 330.5025 200.4256  1.00272166 42691"}}, "geometry": {"type": "Point", "coordinates": [-8.202998602800372, 0.03730345061032118]}}, {"type": "Feature", "properties": {"norad_id": 38775, "name": "BEIDOU-2 M6 (C14)", "group": "gnss", "lat": -40.77050557596807, "lon": 33.77851501364284, "alt_km": 21506.74002715393, "timestamp": "2025-12-23T16:57:12.593433+00:00", "meta": {"OBJECT_NAME": "BEIDOU-2 M6 (C14)", "OBJECT_ID": "2012-050B", "EPOCH": "2025-12-23T05:54:39.234816", "MEAN_MOTION": 1.86230862, "ECCENTRICITY": 0.00114449, "INCLINATION": 56.3871, "RA_OF_ASC_NODE": 68.7189, "ARG_OF_PERICENTER": 343.1863, "MEAN_ANOMALY": 16.829, "EPHEMERIS_TYPE": 0, "CLASSIFICATION_TYPE": "U", "NORAD_CAT_ID": 38775, "ELEMENT_SET_NO": 999, "REV_AT_EPOCH": 9003, "BSTAR": 0, "MEAN_MOTION_DOT": -2.5e-07, "MEAN_MOTION_DDOT": 0}, "tle": {"line1": "1 38775U 12050B   25357.24628744 -.00000025  00000+0  00000+0 0  9993", "line2": "2 38775  56.3871  68.7189 0011444 343.1863  16.8290  1.86230862 90037"}}, "geometry": {"type": "Point", "coordinates": [33.77851501364284, -40.77050557596807]}}]}